STARLINK-36712          
1 67700U 26025H   26059.91668981 -.00077020  00000+0 -51911-3 0  9992
2 67700  97.2848 171.0627 0001755  92.6812 101.6716 15.75235322  4393
STARLINK-36713          
1 67701U 26025J   26059.94770701  .00194972  00000+0  12749-2 0  9999
2 67701  97.2850 171.0895 0001447  96.3985 263.7445 15.75253594  4574
STARLINK-36695          
1 67702U 26025K   26059.94981891  .00363280  00000+0  23206-2 0  9994
2 67702  97.2852 171.0856 0001304  70.4719 289.6687 15.75326308  4562
STARLINK-36630          
1 67703U 26025L   26059.92970913  .00237443  00000+0  12023-2 0  9992
2 67703  97.2862 171.1140 0001435  69.9506 290.1916 15.80900854  4565
STARLINK-36338          
1 67704U 26025M   26059.91668981 -.01879442  00000+0 -13025-1 0  9997
2 67704  97.2857 171.1030 0001692  90.7692 201.2838 15.77513059  4492
STARLINK-36316          
1 67705U 26025N   26059.91668981 -.00035284  00000+0 -23646-3 0  9997
2 67705  97.2855 171.0800 0001562 104.9144 133.4366 15.75209547  4495
STARLINK-36707          
1 67706U 26025P   26059.92198088  .00304575  00000+0  15279-2 0  9997
2 67706  97.2862 171.1232 0001018  79.2284 280.9099 15.80930819  4567
STARLINK-36645          
1 67707U 26025Q   26059.94205938  .00172280  00000+0  11300-2 0  9990
2 67707  97.2856 171.0957 0001449  97.2271 262.9159 15.75246189  4569
STARLINK-36287          
1 67708U 26025R   26059.92021656  .00307797  00000+0  15440-2 0  9994
2 67708  97.2866 171.1246 0001187  76.7551 283.3850 15.80924107  4570
STARLINK-36698          
1 67709U 26025S   26059.91328891  .00225446  00000+0  11427-2 0  9996
2 67709  97.2866 171.1331 0001295  80.6189 279.5225 15.80909448  4560
STARLINK-36344          
1 67710U 26025T   26059.91759254  .00233488  00000+0  11826-2 0  9997
2 67710  97.2868 171.1276 0001388  74.8583 285.2839 15.80904122  4578
STARLINK-36687          
1 67711U 26025U   26059.91559591  .00371880  00000+0  18494-2 0  9997
2 67711  97.2865 171.1300 0001328  66.7413 293.3995 15.80948334  4576
