CCSDS_OMM_VERS = 2.0
CREATION_DATE  = 
ORIGINATOR     = 

OBJECT_NAME    = STARLINK-36712
OBJECT_ID      = 2026-025H
CENTER_NAME    = EARTH
REF_FRAME      = TEME
TIME_SYSTEM    = UTC
MEAN_ELEMENT_THEORY = SGP/SGP4

EPOCH          = 2026-02-28T22:00:01.999584
MEAN_MOTION    = 15.75235322
ECCENTRICITY   = .00017551
INCLINATION    = 97.2848
RA_OF_ASC_NODE = 171.0627
ARG_OF_PERICENTER = 92.6812
MEAN_ANOMALY   = 101.6716

EPHEMERIS_TYPE = 0
CLASSIFICATION_TYPE = U
NORAD_CAT_ID   = 67700
ELEMENT_SET_NO = 999
REV_AT_EPOCH   = 439
BSTAR          = -.51911223E-3
MEAN_MOTION_DOT = -.7702E-3
MEAN_MOTION_DDOT = 0

CCSDS_OMM_VERS = 2.0
CREATION_DATE  = 
ORIGINATOR     = 

OBJECT_NAME    = STARLINK-36713
OBJECT_ID      = 2026-025J
CENTER_NAME    = EARTH
REF_FRAME      = TEME
TIME_SYSTEM    = UTC
MEAN_ELEMENT_THEORY = SGP/SGP4

EPOCH          = 2026-02-28T22:44:41.885664
MEAN_MOTION    = 15.75253594
ECCENTRICITY   = .00014475
INCLINATION    = 97.2850
RA_OF_ASC_NODE = 171.0895
ARG_OF_PERICENTER = 96.3985
MEAN_ANOMALY   = 263.7445

EPHEMERIS_TYPE = 0
CLASSIFICATION_TYPE = U
NORAD_CAT_ID   = 67701
ELEMENT_SET_NO = 999
REV_AT_EPOCH   = 457
BSTAR          = .12749122E-2
MEAN_MOTION_DOT = .194972E-2
MEAN_MOTION_DDOT = 0

CCSDS_OMM_VERS = 2.0
CREATION_DATE  = 
ORIGINATOR     = 

OBJECT_NAME    = STARLINK-36695
OBJECT_ID      = 2026-025K
CENTER_NAME    = EARTH
REF_FRAME      = TEME
TIME_SYSTEM    = UTC
MEAN_ELEMENT_THEORY = SGP/SGP4

EPOCH          = 2026-02-28T22:47:44.353824
MEAN_MOTION    = 15.75326308
ECCENTRICITY   = .00013043
INCLINATION    = 97.2852
RA_OF_ASC_NODE = 171.0856
ARG_OF_PERICENTER = 70.4719
MEAN_ANOMALY   = 289.6687

EPHEMERIS_TYPE = 0
CLASSIFICATION_TYPE = U
NORAD_CAT_ID   = 67702
ELEMENT_SET_NO = 999
REV_AT_EPOCH   = 456
BSTAR          = .23205951E-2
MEAN_MOTION_DOT = .36328E-2
MEAN_MOTION_DDOT = 0

CCSDS_OMM_VERS = 2.0
CREATION_DATE  = 
ORIGINATOR     = 

OBJECT_NAME    = STARLINK-36630
OBJECT_ID      = 2026-025L
CENTER_NAME    = EARTH
REF_FRAME      = TEME
TIME_SYSTEM    = UTC
MEAN_ELEMENT_THEORY = SGP/SGP4

EPOCH          = 2026-02-28T22:18:46.868832
MEAN_MOTION    = 15.80900854
ECCENTRICITY   = .00014355
INCLINATION    = 97.2862
RA_OF_ASC_NODE = 171.1140
ARG_OF_PERICENTER = 69.9506
MEAN_ANOMALY   = 290.1916

EPHEMERIS_TYPE = 0
CLASSIFICATION_TYPE = U
NORAD_CAT_ID   = 67703
ELEMENT_SET_NO = 999
REV_AT_EPOCH   = 456
BSTAR          = .12022544E-2
MEAN_MOTION_DOT = .237443E-2
MEAN_MOTION_DDOT = 0

CCSDS_OMM_VERS = 2.0
CREATION_DATE  = 
ORIGINATOR     = 

OBJECT_NAME    = STARLINK-36338
OBJECT_ID      = 2026-025M
CENTER_NAME    = EARTH
REF_FRAME      = TEME
TIME_SYSTEM    = UTC
MEAN_ELEMENT_THEORY = SGP/SGP4

EPOCH          = 2026-02-28T22:00:01.999584
MEAN_MOTION    = 15.77513059
ECCENTRICITY   = .00016921
INCLINATION    = 97.2857
RA_OF_ASC_NODE = 171.1030
ARG_OF_PERICENTER = 90.7692
MEAN_ANOMALY   = 201.2838

EPHEMERIS_TYPE = 0
CLASSIFICATION_TYPE = U
NORAD_CAT_ID   = 67704
ELEMENT_SET_NO = 999
REV_AT_EPOCH   = 449
BSTAR          = -.13024707E-1
MEAN_MOTION_DOT = -.1879442E-1
MEAN_MOTION_DDOT = 0

CCSDS_OMM_VERS = 2.0
CREATION_DATE  = 
ORIGINATOR     = 

OBJECT_NAME    = STARLINK-36316
OBJECT_ID      = 2026-025N
CENTER_NAME    = EARTH
REF_FRAME      = TEME
TIME_SYSTEM    = UTC
MEAN_ELEMENT_THEORY = SGP/SGP4

EPOCH          = 2026-02-28T22:00:01.999584
MEAN_MOTION    = 15.75209547
ECCENTRICITY   = .00015627
INCLINATION    = 97.2855
RA_OF_ASC_NODE = 171.0800
ARG_OF_PERICENTER = 104.9144
MEAN_ANOMALY   = 133.4366

EPHEMERIS_TYPE = 0
CLASSIFICATION_TYPE = U
NORAD_CAT_ID   = 67705
ELEMENT_SET_NO = 999
REV_AT_EPOCH   = 449
BSTAR          = -.23645886E-3
MEAN_MOTION_DOT = -.35284E-3
MEAN_MOTION_DDOT = 0

CCSDS_OMM_VERS = 2.0
CREATION_DATE  = 
ORIGINATOR     = 

OBJECT_NAME    = STARLINK-36707
OBJECT_ID      = 2026-025P
CENTER_NAME    = EARTH
REF_FRAME      = TEME
TIME_SYSTEM    = UTC
MEAN_ELEMENT_THEORY = SGP/SGP4

EPOCH          = 2026-02-28T22:07:39.148032
MEAN_MOTION    = 15.80930819
ECCENTRICITY   = .00010184
INCLINATION    = 97.2862
RA_OF_ASC_NODE = 171.1232
ARG_OF_PERICENTER = 79.2284
MEAN_ANOMALY   = 280.9099

EPHEMERIS_TYPE = 0
CLASSIFICATION_TYPE = U
NORAD_CAT_ID   = 67706
ELEMENT_SET_NO = 999
REV_AT_EPOCH   = 456
BSTAR          = .1527919E-2
MEAN_MOTION_DOT = .304575E-2
MEAN_MOTION_DDOT = 0

CCSDS_OMM_VERS = 2.0
CREATION_DATE  = 
ORIGINATOR     = 

OBJECT_NAME    = STARLINK-36645
OBJECT_ID      = 2026-025Q
CENTER_NAME    = EARTH
REF_FRAME      = TEME
TIME_SYSTEM    = UTC
MEAN_ELEMENT_THEORY = SGP/SGP4

EPOCH          = 2026-02-28T22:36:33.930432
MEAN_MOTION    = 15.75246189
ECCENTRICITY   = .00014497
INCLINATION    = 97.2856
RA_OF_ASC_NODE = 171.0957
ARG_OF_PERICENTER = 97.2271
MEAN_ANOMALY   = 262.9159

EPHEMERIS_TYPE = 0
CLASSIFICATION_TYPE = U
NORAD_CAT_ID   = 67707
ELEMENT_SET_NO = 999
REV_AT_EPOCH   = 456
BSTAR          = .11300131E-2
MEAN_MOTION_DOT = .17228E-2
MEAN_MOTION_DDOT = 0

CCSDS_OMM_VERS = 2.0
CREATION_DATE  = 
ORIGINATOR     = 

OBJECT_NAME    = STARLINK-36287
OBJECT_ID      = 2026-025R
CENTER_NAME    = EARTH
REF_FRAME      = TEME
TIME_SYSTEM    = UTC
MEAN_ELEMENT_THEORY = SGP/SGP4

EPOCH          = 2026-02-28T22:05:06.710784
MEAN_MOTION    = 15.80924107
ECCENTRICITY   = .00011873
INCLINATION    = 97.2866
RA_OF_ASC_NODE = 171.1246
ARG_OF_PERICENTER = 76.7551
MEAN_ANOMALY   = 283.3850

EPHEMERIS_TYPE = 0
CLASSIFICATION_TYPE = U
NORAD_CAT_ID   = 67708
ELEMENT_SET_NO = 999
REV_AT_EPOCH   = 457
BSTAR          = .15439789E-2
MEAN_MOTION_DOT = .307797E-2
MEAN_MOTION_DDOT = 0

CCSDS_OMM_VERS = 2.0
CREATION_DATE  = 
ORIGINATOR     = 

OBJECT_NAME    = STARLINK-36698
OBJECT_ID      = 2026-025S
CENTER_NAME    = EARTH
REF_FRAME      = TEME
TIME_SYSTEM    = UTC
MEAN_ELEMENT_THEORY = SGP/SGP4

EPOCH          = 2026-02-28T21:55:08.161824
MEAN_MOTION    = 15.80909448
ECCENTRICITY   = .00012953
INCLINATION    = 97.2866
RA_OF_ASC_NODE = 171.1331
ARG_OF_PERICENTER = 80.6189
MEAN_ANOMALY   = 279.5225

EPHEMERIS_TYPE = 0
CLASSIFICATION_TYPE = U
NORAD_CAT_ID   = 67709
ELEMENT_SET_NO = 999
REV_AT_EPOCH   = 456
BSTAR          = .11426828E-2
MEAN_MOTION_DOT = .225446E-2
MEAN_MOTION_DDOT = 0

CCSDS_OMM_VERS = 2.0
CREATION_DATE  = 
ORIGINATOR     = 

OBJECT_NAME    = STARLINK-36344
OBJECT_ID      = 2026-025T
CENTER_NAME    = EARTH
REF_FRAME      = TEME
TIME_SYSTEM    = UTC
MEAN_ELEMENT_THEORY = SGP/SGP4

EPOCH          = 2026-02-28T22:01:19.995456
MEAN_MOTION    = 15.80904122
ECCENTRICITY   = .0001388
INCLINATION    = 97.2868
RA_OF_ASC_NODE = 171.1276
ARG_OF_PERICENTER = 74.8583
MEAN_ANOMALY   = 285.2839

EPHEMERIS_TYPE = 0
CLASSIFICATION_TYPE = U
NORAD_CAT_ID   = 67710
ELEMENT_SET_NO = 999
REV_AT_EPOCH   = 457
BSTAR          = .11826053E-2
MEAN_MOTION_DOT = .233488E-2
MEAN_MOTION_DDOT = 0

CCSDS_OMM_VERS = 2.0
CREATION_DATE  = 
ORIGINATOR     = 

OBJECT_NAME    = STARLINK-36687
OBJECT_ID      = 2026-025U
CENTER_NAME    = EARTH
REF_FRAME      = TEME
TIME_SYSTEM    = UTC
MEAN_ELEMENT_THEORY = SGP/SGP4

EPOCH          = 2026-02-28T21:58:27.486624
MEAN_MOTION    = 15.80948334
ECCENTRICITY   = .00013281
INCLINATION    = 97.2865
RA_OF_ASC_NODE = 171.1300
ARG_OF_PERICENTER = 66.7413
MEAN_ANOMALY   = 293.3995

EPHEMERIS_TYPE = 0
CLASSIFICATION_TYPE = U
NORAD_CAT_ID   = 67711
ELEMENT_SET_NO = 999
REV_AT_EPOCH   = 457
BSTAR          = .18494211E-2
MEAN_MOTION_DOT = .37188E-2
MEAN_MOTION_DDOT = 0

